
    {
      "objectName": "STARLINK-34168",
      "objectId": "2025-107R",
      "noradId": 64079,
      "epochUtc": "2026-03-16T14:51:40.023936Z",
      "meanMotionRevPerDay": 15.27591145,
      "eccentricity": 0.0000862,
      "inclinationDeg": 43.0028,
      "raanDeg": 162.1214,
      "argPerigeeDeg": 285.1914,
      "meanAnomalyDeg": 74.8842,
      "bstar": 0.00058114,
      "meanMotionDot": 0.00015769,
      "meanMotionDdot": 0,
      "elementSetNo": 999,
      "revAtEpoch": 4718
    },
    {
      "objectName": "STARLINK-34098",
      "objectId": "2025-107S",
      "noradId": 64080,
      "epochUtc": "2026-03-16T15:02:46.128192Z",
      "meanMotionRevPerDay": 15.27586021,
      "eccentricity": 0.0001131,
      "inclinationDeg": 43.0004,
      "raanDeg": 162.1805,
      "argPerigeeDeg": 264.4351,
      "meanAnomalyDeg": 95.6372,
      "bstar": 0.00063597,
      "meanMotionDot": 0.00017283,
      "meanMotionDdot": 0,
      "elementSetNo": 999,
      "revAtEpoch": 4718
    },
    {
      "objectName": "STARLINK-34171",
      "objectId": "2025-107U",
      "noradId": 64082,
      "epochUtc": "2026-03-16T20:00:01.999008Z",
      "meanMotionRevPerDay": 15.27602399,
      "eccentricity": 0.0001412,
      "inclinationDeg": 43.0018,
      "raanDeg": 160.8598,
      "argPerigeeDeg": 291.3058,
      "meanAnomalyDeg": 188.9895,
      "bstar": -0.000051022,
      "meanMotionDot": -0.00001667,
      "meanMotionDdot": 0,
      "elementSetNo": 999,
      "revAtEpoch": 585
    },
    {
      "objectName": "STARLINK-34157",
      "objectId": "2025-107W",
      "noradId": 64084,
      "epochUtc": "2026-03-16T14:59:03.774336Z",
      "meanMotionRevPerDay": 15.27576308,
      "eccentricity": 0.0001393,
      "inclinationDeg": 43.0035,
      "raanDeg": 162.1564,
      "argPerigeeDeg": 277.3066,
      "meanAnomalyDeg": 82.7627,
      "bstar": 0.00033662,
      "meanMotionDot": 0.00009011,
      "meanMotionDdot": 0,
      "elementSetNo": 999,
      "revAtEpoch": 4716
    },
    {
      "objectName": "STARLINK-11686 [DTC]",
      "objectId": "2025-119A",
      "noradId": 64233,
      "epochUtc": "2026-03-16T13:42:23.757984Z",
      "meanMotionRevPerDay": 15.70878666,
      "eccentricity": 0.0001368,
      "inclinationDeg": 43.0009,
      "raanDeg": 167.9354,
      "argPerigeeDeg": 281.6214,
      "meanAnomalyDeg": 78.45,
      "bstar": 0.0015014,
      "meanMotionDot": 0.00197165,
      "meanMotionDdot": 0,
      "elementSetNo": 999,
      "revAtEpoch": 4632
    },
    {
      "objectName": "STARLINK-34269",
      "objectId": "2025-127S",
      "noradId": 64386,
      "epochUtc": "2026-03-16T12:11:16.206144Z",
      "meanMotionRevPerDay": 15.27588599,
      "eccentricity": 0.0001206,
      "inclinationDeg": 43.0025,
      "raanDeg": 140.9423,
      "argPerigeeDeg": 245.1092,
      "meanAnomalyDeg": 114.9634,
      "bstar": 0.00089863,
      "meanMotionDot": 0.00024555,
      "meanMotionDdot": 0,
      "elementSetNo": 999,
      "revAtEpoch": 4351
    },
    {
      "objectName": "STARLINK-34351",
      "objectId": "2025-127T",
      "noradId": 64387,
      "epochUtc": "2026-03-15T22:02:00.279456Z",
      "meanMotionRevPerDay": 15.27582147,
      "eccentricity": 0.00016749,
      "inclinationDeg": 43.0051,
      "raanDeg": 144.2501,
      "argPerigeeDeg": 248.1941,
      "meanAnomalyDeg": 111.8733,
      "bstar": 0.00047057893,
      "meanMotionDot": 0.0001271,
      "meanMotionDdot": 0,
      "elementSetNo": 999,
      "revAtEpoch": 4342
    },
    {
      "objectName": "STARLINK-34198",
      "objectId": "2025-127U",
      "noradId": 64388,
      "epochUtc": "2026-03-15T14:09:22.687488Z",
      "meanMotionRevPerDay": 15.2758512,
      "eccentricity": 0.00011823,
      "inclinationDeg": 42.9998,
      "raanDeg": 146.0972,
      "argPerigeeDeg": 256.526,
      "meanAnomalyDeg": 103.546,
      "bstar": 0.0010496488,
      "meanMotionDot": 0.00028739,
      "meanMotionDdot": 0,
      "elementSetNo": 999,
      "revAtEpoch": 4337
    },
    {
      "objectName": "STARLINK-34278",
      "objectId": "2025-127X",
      "noradId": 64391,
      "epochUtc": "2026-03-16T13:49:07.983840Z",
      "meanMotionRevPerDay": 15.27580694,
      "eccentricity": 0.0001656,
      "inclinationDeg": 43.0022,
      "raanDeg": 140.5918,
      "argPerigeeDeg": 273.3765,
      "meanAnomalyDeg": 86.6897,
      "bstar": 0.00071018,
      "meanMotionDot": 0.00019332,
      "meanMotionDdot": 0,
      "elementSetNo": 999,
      "revAtEpoch": 4352
    },
    {
      "objectName": "STARLINK-34641",
      "objectId": "2025-150H",
      "noradId": 64797,
      "epochUtc": "2026-03-16T19:19:42.062016Z",
      "meanMotionRevPerDay": 14.98334533,
      "eccentricity": 0.0003487,
      "inclinationDeg": 70.0013,
      "raanDeg": 116.4774,
      "argPerigeeDeg": 270.6325,
      "meanAnomalyDeg": 89.4435,
      "bstar": 0.00018302,
      "meanMotionDot": 0.00002092,
      "meanMotionDdot": 0,
      "elementSetNo": 999,
      "revAtEpoch": 3841
    },
    {
      "objectName": "STARLINK-34604",
      "objectId": "2025-150M",
      "noradId": 64801,
      "epochUtc": "2026-03-16T19:31:43.161600Z",
      "meanMotionRevPerDay": 14.98336405,
      "eccentricity": 0.0003723,
      "inclinationDeg": 70.0015,
      "raanDeg": 116.5054,
      "argPerigeeDeg": 274.3643,
      "meanAnomalyDeg": 85.709,
      "bstar": 0.00036374,
      "meanMotionDot": 0.00004251,
      "meanMotionDdot": 0,
      "elementSetNo": 999,
      "revAtEpoch": 3758
    },
    {
      "objectName": "STARLINK-34633",
      "objectId": "2025-150Q",
      "noradId": 64804,
      "epochUtc": "2026-03-16T19:25:56.860896Z",
      "meanMotionRevPerDay": 14.98334811,
      "eccentricity": 0.0003271,
      "inclinationDeg": 70.0013,
      "raanDeg": 116.4886,
      "argPerigeeDeg": 272.2317,
      "meanAnomalyDeg": 87.8467,
      "bstar": 0.00016891,
      "meanMotionDot": 0.00001923,
      "meanMotionDdot": 0,
      "elementSetNo": 999,
      "revAtEpoch": 3758
    },
    {
      "objectName": "STARLINK-34757",
      "objectId": "2025-152J",
      "noradId": 64850,
      "epochUtc": "2026-03-16T20:21:02.524032Z",
      "meanMotionRevPerDay": 15.05647871,
      "eccentricity": 0.000256,
      "inclinationDeg": 97.6025,
      "raanDeg": 292.5466,
      "argPerigeeDeg": 69.7152,
      "meanAnomalyDeg": 290.435,
      "bstar": 0.00011032,
      "meanMotionDot": 0.00001531,
      "meanMotionDdot": 0,
      "elementSetNo": 999,
      "revAtEpoch": 3649
    }