STARLINK-34168          
1 64079U 25107R   26075.61921324  .00015769  00000+0  58114-3 0  9998
2 64079  43.0028 162.1214 0000862 285.1914  74.8842 15.27591145 47181
STARLINK-34098          
1 64080U 25107S   26075.62692278  .00017283  00000+0  63597-3 0  9998
2 64080  43.0004 162.1805 0001131 264.4351  95.6372 15.27586021 47184
STARLINK-34171          
1 64082U 25107U   26075.83335647 -.00001667  00000+0 -51022-4 0  9999
2 64082  43.0018 160.8598 0001412 291.3058 188.9895 15.27602399  5851
STARLINK-34157          
1 64084U 25107W   26075.62434924  .00009011  00000+0  33662-3 0  9994
2 64084  43.0035 162.1564 0001393 277.3066  82.7627 15.27576308 47165
STARLINK-11686 [DTC]    
1 64233U 25119A   26075.57110831  .00197165  00000+0  15014-2 0  9993
2 64233  43.0009 167.9354 0001368 281.6214  78.4500 15.70878666 46326
STARLINK-34269          
1 64386U 25127S   26075.50782646  .00024555  00000+0  89863-3 0  9999
2 64386  43.0025 140.9423 0001206 245.1092 114.9634 15.27588599 43518
STARLINK-34351          
1 64387U 25127T   26074.91805879  .00012710  00000+0  47058-3 0  9998
2 64387  43.0051 144.2501 0001674 248.1941 111.8733 15.27582147 43426
STARLINK-34198          
1 64388U 25127U   26074.58984592  .00028739  00000+0  10496-2 0  9995
2 64388  42.9998 146.0972 0001182 256.5260 103.5460 15.27585120 43371
STARLINK-34278          
1 64391U 25127X   26075.57578685  .00019332  00000+0  71018-3 0  9998
2 64391  43.0022 140.5918 0001656 273.3765  86.6897 15.27580694 43520
STARLINK-34641          
1 64797U 25150H   26075.80534794  .00002092  00000+0  18302-3 0  9995
2 64797  70.0013 116.4774 0003487 270.6325  89.4435 14.98334533 38415
STARLINK-34604          
1 64801U 25150M   26075.81369400  .00004251  00000+0  36374-3 0  9990
2 64801  70.0015 116.5054 0003723 274.3643  85.7090 14.98336405 37585
STARLINK-34633          
1 64804U 25150Q   26075.80968589  .00001923  00000+0  16891-3 0  9990
2 64804  70.0013 116.4886 0003271 272.2317  87.8467 14.98334811 37581
STARLINK-34757          
1 64850U 25152J   26075.84794588  .00001531  00000+0  11032-3 0  9990
2 64850  97.6025 292.5466 0002560  69.7152 290.4350 15.05647871 36490
